1 22161U 92064A   93327.43355939  .00000031  00000-0  37192-4 0  3149
2 22161  63.0071  93.1167 0774325 296.9538  55.4434 13.21684783 54599
1 22161U 92064A   93332.65408659  .00000215  00000-0  14697-3 0  3156
2 22161  63.0073  79.9094 0774616 297.4268  55.0640 13.21689888 55284
1 22161U 92064A   93340.67397845  .00000380  00000-0  22436-3 0  3176
2 22161  63.0096  59.6381 0775288 298.1291  54.3623 13.21696030 56352
1 22161U 92064A   93345.66747286  .00000313  00000-0  19271-3 0  3188
2 22161  63.0098  47.0085 0775221 298.5487  53.9556 13.21700380 57012
1 22161U 92064A   93349.60174051  .00000177  00000-0  12834-3 0  3197
2 22161  63.0115  37.0627 0775660 298.9131  53.6150 13.21701698 57537
1 22161U 92064A   93353.76297406  .00000236  00000-0  16012-3 0  3412
2 22161  63.0085  26.5379 0776080 299.2702  53.2853 13.21704855 58080
1 22161U 92064A   93358.30249494  .00000080  00000-0  86892-4 0  3423
2 22161  63.0076  15.0569 0776169 299.6484  52.9386 13.21706387 58688
1 22161U 92064A   93362.46372027  .00000085  00000-0  89233-4 0  3432
2 22161  63.0068   4.5354 0776403 300.0279  52.5888 13.21707704 59233
1 22161U 92064A   94002.23020220  .00000108  00000-0  99805-4 0  3447
2 22161  63.0059 352.4787 0776568 300.4527  52.1971 13.21710619 59867
1 22161U 92064A   94010.24998278  .00000142  00000-0  11547-3 0  3550
2 22161  63.0056 332.1959 0777201 301.1948  51.5110 13.21714406 60925
1 22161U 92064A   94014.33552187  .00000071  00000-0  82310-4 0  3568
2 22161  63.0049 321.8624 0777577 301.5445  51.1874 13.21715891 61465
1 22161U 92064A   94021.22041319  .00000118  00000-0  10384-3 0  3589
2 22161  63.0069 304.4497 0777575 302.1486  50.6356 13.21717103 62370
1 22161U 92064A   94027.80265928  .00000006  00000-0  51706-4 0  3594
2 22161  63.0094 287.8067 0777563 302.7771  50.0614 13.21718561 63242
1 22161U 92064A   94031.88817935  .00000191  00000-0  13799-3 0  3604
2 22161  63.0092 277.4741 0777647 303.1383  49.7311 13.21722215 63780
1 22161U 92064A   94036.04935021  .00000156  00000-0  12180-3 0  3619
2 22161  63.0075 266.9523 0777796 303.4965  49.4029 13.21724531 64334
1 22161U 92064A   94039.07565927 -.00000018  00000-0  40721-4 0  3621
2 22161  63.0061 259.2988 0777790 303.7662  49.1577 13.21723767 64739
1 22161U 92064A   94043.53945824  .00000050  00000-0  72436-4 0  3639
2 22161  63.0042 248.0075 0777983 304.1601  48.7997 13.21725096 65327
1 22161U 92064  A 94049.97036134  .00000068  00000-0  31409-4 0  3676
2 22161 062.9999 231.7276 0780328 304.7569 048.2924 13.21724454066170
1 22161U 92064  A 94052.99666136  .00000263  00000-0  12120-3 0  3702
2 22161 063.0006 224.0750 0780444 305.0100 048.0630 13.21726529066578
1 22161U 92064  A 94056.93084623  .00000008  00000-0  38922-5 0  3746
2 22161 062.9989 214.1234 0780524 305.3554 047.7482 13.21727499067094
1 22161U 92064  A 94060.86503167  .00000142  00000-0  65332-4 0  3789
2 22161 063.0005 204.1709 0780631 305.6980 047.4357 13.21728006067617
1 22161U 92064A   94067.44719825  .00000235  00000-0  15739-3 0  3812
2 22161  63.0014 187.5347 0778993 306.2782  46.8651 13.21733369 68488
1 22161U 92064A   94071.75964977  .00000149  00000-0  11757-3 0  3822
2 22161  63.0073 176.6268 0779291 306.6757  46.5033 13.21735474 69056
1 22161U 92064A   94076.22340226  .00000272  00000-0  17420-3 0  3835
2 22161  63.0065 165.3385 0779382 307.0439  46.1696 13.21739366 69645
1 22161U 92064A   94080.23320383  .00000240  00000-0  15932-3 0  3845
2 22161  63.0069 155.1936 0779539 307.4120  45.8346 13.21742470 70171
1 22161U 92064A   94084.24300112  .00000176  00000-0  12978-3 0  3854
2 22161  63.0057 145.0537 0779655 307.7440  45.5335 13.21744171 70704
1 22161U 92064A   94089.23631646  .00000329  00000-0  20022-3 0  3867
2 22161  63.0046 132.4264 0779793 308.1609  45.1559 13.21749073 71367
1 22161U 92064A   94093.47306609 -.00000003  00000-0  47500-4 0  3878
2 22161  63.0045 121.7037 0779889 308.5510  44.8043 13.21748606 71923
1 22161U 92064A   94097.48284107  .00000117  00000-0  10235-3 0  3881
2 22161  63.0040 111.5569 0780480 308.9336  44.4547 13.21751077 72454
1 22161U 92064A   94102.09786170  .00000035  00000-0  64668-4 0  3892
2 22161  63.0040  99.8861 0780449 309.3203  44.1058 13.21751968 73061
1 22161U 92064A   94106.10763429 -.00000039  00000-0  30833-4 0  3904
2 22161  63.0026  89.7410 0780855 309.6791  43.7821 13.21751852 73592
1 22161U 92064A   94110.34436716  .00000099  00000-0  94029-4 0  3914
2 22161  63.0014  79.0227 0781105 310.0432  43.4525 13.21754016 74150
1 22161U 92064A   94114.35412725  .00000077  00000-0  83801-4 0  3926
2 22161  63.0010  68.8799 0781586 310.4104  43.1178 13.21755765 74680
1 22161U 92064A   94121.23880437  .00000069  00000-0  79929-4 0  3949
2 22161  63.0065  51.4617 0781991 311.0375  42.5520 13.21757788 75596
1 22161U 92064A   94125.24855857 -.00000057  00000-0  22614-4 0  3950
2 22161  63.0057  41.3208 0782096 311.3722  42.2506 13.21757622 76125
1 22161U 92064A   94131.14970403  .00000057  00000-0  74143-4 0  3965
2 22161  63.0073  26.3890 0782601 311.9320  41.7458 13.21759174 76905
1 22161U 92064A   94148.55048379 -.00000094  00000-0  57577-5 0  4074
2 22161  63.0062 342.3717 0783125 313.4085  40.4217 13.21761120 79208
1 22161U 92064A   94156.56995877 -.00000017  00000-0  40396-4 0  4095
2 22161  63.0025 322.0847 0783537 314.1136  39.7895 13.21763347 80262
1 22161U 92064A   94159.89879800 -.00000107  00000-0 -13533-6 0  4109
2 22161  63.0050 313.6603 0783607 314.4029  39.5325 13.21762652 80701
1 22161U 92064A   94166.78342876  .00000066  00000-0  78127-4 0  4125
2 22161  63.0038 296.2437 0783877 314.9875  39.0097 13.21766052 81611
1 22161U 92064A   94170.41488438 -.00000080  00000-0  11893-4 0  4130
2 22161  63.0020 287.0552 0784222 315.3195  38.7111 13.21765317 82092
1 22161U 92064A   94174.72723312 -.00000072  00000-0  15715-4 0  4140
2 22161  63.0016 276.1451 0784639 315.6826  38.3867 13.21765984 82667
1 22161U 92064A   94179.26654793 -.00000160  00000-0 -24110-4 0  4159
2 22161  63.0009 264.6607 0784825 316.0760  38.0351 13.21765575 83261
1 22161U 92064A   94183.57889918 -.00000123  00000-0 -74775-5 0  4160
2 22161  62.9994 253.7483 0785114 316.4648  37.6894 13.21765261 83836
1 22161U 92064A   94187.58861266 -.00000037  00000-0  31455-4 0  4172
2 22161  63.0015 243.6027 0785131 316.8068  37.3854 13.21766488 84367
1 22161U 92064A   94191.59834212 -.00000123  00000-0 -72180-5 0  4188
2 22161  63.0008 233.4588 0785349 317.1545  37.0756 13.21765709 84894
1 22161U 92064A   94196.44027403  .00000064  00000-0  76692-4 0  4197
2 22161  63.0022 221.2066 0785929 317.6088  36.6694 13.21767843 85536
1 22161U 92064A   94206.42675390  .00000007  00000-0  51140-4 0  4234
2 22161  62.9976 195.9372 0786367 318.4763  35.8983 13.21768330 86855
1 22161U 92064A   94213.38702056 -.00000178  00000-0 -31615-4 0  4255
2 22161  62.9973 178.3279 0786902 319.0849  35.3571 13.21768480 87776
1 22161U 92064A   94221.25514863 -.00000150  00000-0 -18997-4 0  4266
2 22161  63.0039 158.4143 0787488 319.8056  34.7580 13.21770901 88818
1 22161U 92064A   94225.26485502 -.00000073  00000-0  15294-4 0  4279
2 22161  63.0035 148.2709 0787807 320.1639  34.3998 13.21770735 89349
1 22161U 92064A   94230.18241740  .00000242  00000-0  15475-3 0  4299
2 22161  63.0020 135.8281 0788159 320.5934  34.0195 13.21775113 89995
1 22161U 92064A   94238.12617149 -.00000023  00000-0  37343-4 0  4344
2 22161  63.0005 115.7295 0788344 321.2885  33.4064 13.21774440 91048
1 22161U 92064A   94246.06991082 -.00000094  00000-0  59586-5 0  4361
2 22161  63.0014  95.6286 0788809 321.9824  32.7924 13.21776222 92093
1 22161U 92064A   94255.98066846 -.00000050  00000-0  25298-4 0  4402
2 22161  62.9992  70.5493 0789269 322.8178  32.0569 13.21777408 93402
1 22161U 92064A   94259.91471240 -.00000119  00000-0 -47893-5 0  4411
2 22161  62.9977  60.5912 0789865 323.1852  31.7313 13.21776418 93925
1 22161U 92064A   94267.85844575 -.00000185  00000-0 -33796-4 0  4439
2 22161  63.0005  40.4874 0789867 323.8542  31.1450 13.21776306 94976
1 22161U 92064A   94272.70034322 -.00000107  00000-0  13299-6 0  4521
2 22161  63.0007  28.2348 0790393 324.2728  30.7753 13.21776468 95617
1 22161U 92064A   94290.25219416 -.00000091  00000-0  72424-5 0  4559
2 22161  63.0011 343.8195 0791719 325.7962  29.4356 13.21779793 97932
1 22161U 92064A   94294.56449537  .00000045  00000-0  66553-4 0  4560
2 22161  62.9994 332.9055 0791890 326.1630  29.1156 13.21781265 98507
1 22161U 92064A   94299.10374932  .00000147  00000-0  11092-3 0  4572
2 22161  63.0012 321.4177 0792061 326.5534  28.7705 13.21784601 99105
1 22161U 92064A   94302.50819312 -.00000009  00000-0  42879-4 0  4584
2 22161  62.9999 312.8022 0792329 326.8481  28.5157 13.21784162 99551
1 22161U 92064A   94311.43536176  .00000191  00000-0  12965-3 0  4606
2 22161  62.9990 290.2092 0792708 327.6018  27.8569 13.21790775100733
1 22161U 92064A   94314.99109434  .00000136  00000-0  10539-3 0  4618
2 22161  62.9977 281.2074 0793271 327.9290  27.5671 13.21791649101204
1 22161U 92064A   94320.89208094  .00000114  00000-0  95789-4 0  4635
2 22161  62.9969 266.2716 0793587 328.4386  27.1227 13.21794823101988
1 22161U 92064A   94328.23048545  .00000110  00000-0  93705-4 0  4658
2 22161  62.9963 247.6938 0795148 329.1343  26.5122 13.21796175102954
1 22161U 92064A   94332.24011830  .00000075  00000-0  78592-4 0  4669
2 22161  62.9961 237.5450 0794998 329.4691  26.2219 13.21797773103488
1 22161U 92064A   94336.77932645 -.00000067  00000-0  17888-4 0  4671
2 22161  62.9967 226.0586 0795390 329.8657  25.8736 13.21797544104082
1 22161U 92064A   94340.10807174  .00000203  00000-0  13334-3 0  4684
2 22161  63.0023 217.6322 0795682 330.1748  25.6071 13.21801430104520
1 22161U 92064A   94344.57161176 -.00000015  00000-0  40192-4 0  4690
2 22161  63.0010 206.3358 0795931 330.5562  25.2653 13.21801799105111
1 22161U 92064A   94353.57435207  .00000087  00000-0  83264-4 0  4717
2 22161  62.9985 183.5436 0796606 331.3647  24.6225 13.21804352106304
